41925,IRIDIUM 112,2017,100.4,860.0,+,86.39,Active,1,LEO,USA,USA,Commercial/Government,Communications,Falcon,1 41925U 17003J   24334.91553093  .00000556  00000+0  19151-3 0  9998,2 41925  86.3944 324.1099 0002571  92.0277 268.1213 14.34220636412424,14.34220636,0.0002571,LEO
41926,IRIDIUM 111,2017,100.4,860.0,+,86.39,Active,1,LEO,USA,USA,Commercial/Government,Communications,Falcon,1 41926U 17003K   24335.46099053  .00000812  00000+0  28278-3 0  9996,2 41926  86.3947 323.9399 0002276  85.4709 274.6747 14.34215434412453,14.34215434,0.0002276,LEO
42803,IRIDIUM 113,2017,100.4,860.0,+,86.4,Active,1,LEO,USA,USA,Commercial/Government,Communications,Falcon,1 42803U 17039A   24335.09212056  .00000624  00000+0  21584-3 0  9993,2 42803  86.4004 197.8798 0002384  91.2755 268.8714 14.34216049390334,14.34216049,0.0002384,LEO
42804,IRIDIUM 123,2017,100.4,860.0,+,86.4,Active,1,LEO,USA,USA,Commercial/Government,Communications,Falcon,1 42804U 17039B   24335.41266735  .00000933  00000+0  32587-3 0  9991,2 42804  86.3996 229.1893 0002007  74.6263 285.5155 14.34223941389141,14.34223941,0.0002007,LEO
42805,IRIDIUM 120,2017,100.4,860.0,+,86.4,Active,1,LEO,USA,USA,Commercial/Government,Communications,Falcon,1 42805U 17039C   24335.36484344  .00000617  00000+0  21335-3 0  9992,2 42805  86.4000 197.6214 0001836  80.5412 279.5991 14.34222678390369,14.34222678,0.0001836,LEO
42806,IRIDIUM 115,2017,99.77,860.0,+,86.45,Active,1,LEO,USA,USA,Commercial/Government,Communications,Falcon,1 42806U 17039D   24334.62688738  .00000114  00000+0  27991-4 0  9991,2 42806  86.4539 197.9783 0002124  73.8496 286.2939 14.43277456392834,14.43277456,0.0002124,LEO
42807,IRIDIUM 118,2017,100.4,860.0,+,86.4,Active,1,LEO,USA,USA,Commercial/Government,Communications,Falcon,1 42807U 17039E   24335.44436865  .00000038  00000+0  66665-5 0  9992,2 42807  86.3994 229.1761 0002174  85.8328 274.3116 14.34219172389141,14.34219172,0.0002174,LEO
42808,IRIDIUM 117,2017,100.4,860.0,+,86.4,Active,1,LEO,USA,USA,Commercial/Government,Communications,Falcon,1 42808U 17039F   24335.46341086  .00000964  00000+0  33698-3 0  9991,2 42808  86.3995 229.1317 0002149  76.4631 283.6804 14.34222800389177,14.342228,0.0002149,LEO
